#dP2021  4  4  0  0  0.00000000      96 __u+U ITR00 FIT  IAC
## 2152      0.00000000   900.00000000 59308 0.0000000000000
+  127   C01C02C03C04C05C06C07C08C09C10C11C12C13C14C16C19C20
+        C21C22C23C24C25C26C27C28C29C30C32C33C34C35C36C37C38
+        C39C40C41C42C43C44C45C46C60E01E02E03E04E05E07E08E09
+        E11E12E13E14E15E18E19E21E24E25E26E27E30E31E33E36G01
+        G02G03G04G05G06G07G08G09G10G11G12G13G14G15G16G17G18
+        G19G20G21G22G23G24G25G26G27G28G29G30G31G32J01J02J03
+        J07R01R02R03R04R05R06R07R08R09R10R11R12R13R14R15R16
+        R17R18R19R20R21R22R23R24  0  0  0  0  0  0  0  0  0
++        13 13 13 14 13  9  9 10  9  9  9  9  9  9 10  8  8
++         8  8  8  8  8  8  9  8  8  8  9  9  8  9  9  9 10
++         9  9  9  9  9  9  9  9 13  5  5  5  5  5  6  6  4
++         5  6  5  5  5  5  5  4  5  5  5  5  6  5  6  5  4
++         4  4  4  4  4  4  4  4  4  5  4  4  4  4  4  4  4
++         4  5  4  4  4  4  4  4  4  4  4  4  4  4 10  9  9
++        14  8  6  6  6  6 14  6  6  6 13  8  6  8  6  6  8
++         6  6  7  8  6  8 13  6  0  0  0  0  0  0  0  0  0
%c M  cc GPS ccc cccc cccc cccc cccc ccccc ccccc ccccc ccccc
%c cc cc ccc ccc cccc cccc cccc cccc ccccc ccccc ccccc ccccc
%f  0.0000000  0.000000000  0.00000000000  0.000000000000000
%f  0.0000000  0.000000000  0.00000000000  0.000000000000000
%i    0    0    0    0      0      0      0      0         0
%i    0    0    0    0      0      0      0      0         0
/* INFORMATION & ANALYSIS CENTER (IAC)            RAPID DATA
/* S/V CLOCKS ARE ALIGNED TO GNSS TIME                      
/* G:C1WC2W R:C1PC2P E:C1XC5X C:C2IC6I J:C1CC2S             
/* PCV:IGS14_2134 OL/AL:FES2004  NONE     YN ORB:CoN CLK:CoN
*  2021 04 04 18  0  0.00000000
PC01 -34360.514220  24410.054720   -251.462361   -591.478996
PC02   4398.765212  41954.608309   1285.681096    785.989253
PC03 -14875.693991  39482.583045    591.573283   -431.161035
PC04 -39576.023887  14524.267243   -365.636864    452.698087
PC05  21857.036900  36078.683726   1013.497746     58.925908
PC06  -9092.432027  34668.008936  23045.645141    244.699021
PC07 -18448.568447  21778.007635 -30900.176063    -86.727819
PC08 -24656.303074  32501.605493   9979.552714   -894.379901
PC09    561.747056  41315.692930   9767.767683    619.534685
PC10  -1730.810998  26473.369791 -32540.900383    -61.389628
PC11  -2545.497103  26714.753262  -7530.990960   -828.660817
PC12 -12359.791959  13794.395786 -20835.943186    917.913837
PC13 -13000.255002  33493.998733  21969.032009    208.213142
PC14  -2180.356235  16211.483131  22633.802579    383.471470
PC16  -5553.325033  36805.574335  20119.692183   -767.061260
PC19  -8750.071676 -18222.071661 -19214.873743    786.659804
PC20  10839.483756 -12323.367986 -22543.912739   -945.760530
PC21 -24923.005656  -1296.505075  12533.932690   -922.928894
PC22 -23833.923499 -13784.747010  -4634.478518   -947.709335
PC23  15825.757603   7647.316007 -21676.109618   -883.750647
PC24 -19025.757517  19414.719142  -6263.041808   -803.258440
PC25  -1151.282236  19131.574599 -20282.514990   -937.688217
PC26 -24195.824089   9514.527457  10081.529533    925.701215
PC27  15571.884819  -3206.769761  22914.181945    509.977172
PC28  13583.285167  17316.764879  17158.306425    -90.220187
PC29  -4687.276790 -27472.586266  -1354.428608    374.330358
PC30   7930.796231 -21730.271093  15584.659440    457.723883
PC32  24918.125237   1129.074834 -12481.135778   -930.477021
PC33   8700.865934  18203.815627  19282.806912   -942.647693
PC34  -7593.595997  22259.161327 -15052.210843   -703.407373
PC35 -14125.332597 -17089.573698 -16927.633907   -342.557856
PC36   1968.577927 -19241.578176  20135.972244   -734.406094
PC37  24357.214223  -8294.324153 -10813.624177   -889.109790
PC38 -21308.527560  34018.007109  12757.606154    140.169764
PC39  -1721.772513  37829.810917  18705.714304     30.015331
PC40  -4521.347986  22009.125618 -35646.311526    147.851345
PC41  23691.185929  13902.911778   4987.562403   -939.149499
PC42 -11618.849412  11985.856378  22413.674045   -929.453775
PC43   4227.828451  27586.272742    855.976381   -670.558580
PC44 -15625.407012   3574.515947 -22852.737595    120.859681
PC45 -15824.506563  -7463.882549  21734.787180    405.020590
PC46  18438.866669 -19725.281491   7125.278361    331.427518
PC60   7288.697031  41527.320345   -890.640064      0.642798
PE01 -29080.932301   1057.222993   5389.766726  -1080.013910
PE02  29113.796318  -1133.389200  -5287.223927    209.834142
PE03  22381.957199   7174.632904 -17982.731390   -416.478413
PE04 -12361.098407  11871.791894  24142.931276   -743.248430
PE05  19416.971000  22310.466770  -1164.552997   -291.496695
PE07  -5177.401103 -24270.399091 -16131.477532   -521.457289
PE08  11932.735721 -12125.043699 -24218.301462   6022.689276
PE09   5490.142469  24219.012200  16105.082400   5711.920089
PE11  -5159.213401  28203.851303   7399.456109   6130.850874
PE12 -16243.847846  21690.699753 -11936.415178   5276.152526
PE13   5373.393904 -28243.863324  -7008.905373    414.546051
PE14  -6523.251461 -26070.918259   5854.498628  -1385.536365
PE15  16125.535006 -21749.688698  11957.458487    821.153005
PE18  -4928.916112  23750.497658 -16945.906324  -1515.556574
PE19 -22687.574263  -9380.179031  16543.278464    243.999812
PE21 -18516.326049 -10849.955022  20377.998797   -657.469396
PE24  -4051.262953  17023.559962 -23885.373454   -829.467148
PE25  18354.845170  10947.672318 -20482.346362   -530.163690
PE26  -9059.558293 -17518.651609 -22065.099602   1962.759737
PE27   3174.956622 -16955.517816  24054.497927     -4.162136
PE30  23538.481361 -12570.022877  12817.035390   3051.653236
PE31 -22837.967088  13050.626550 -13566.269239   -479.836752
PE33 -17366.420640   2494.015722 -23835.763052   -467.210558
PE36   8526.306167  18103.269164  21822.102469   -189.229978
PG01  14032.541628 -22324.887902   -323.910014    724.684921
PG02 -17615.032396   6063.677182 -18292.769729   -592.629862
PG03  12646.779968 -12940.740723 -19484.145840   -127.505449
PG04   5501.031563 -18224.260630 -18493.673419   -190.073314
PG05 -25358.777324   4665.866692   6620.431906    -38.145988
PG06 -12459.749441  -7784.767101 -22065.281932      4.920071
PG07   3569.736561 -22809.194625  13019.778945    111.841680
PG08  11176.566865 -10555.339169  21622.524520    -16.288911
PG09  -4151.123772 -23801.241736 -11069.032489   -336.462567
PG10  17582.043247  11812.932653  16302.560463    -95.211328
PG11   8984.725136 -23187.796146   9391.286939     20.363192
PG12 -16354.564547  10661.854203 -18192.551713    -23.365410
PG13 -15565.538675    369.618796  21401.346034    115.947137
PG14 -16070.385943 -13060.529143  16632.636594     98.064840
PG15 -10406.501390  12240.207780  20751.100846   -158.442918
PG16  26477.329657    691.526855   3915.138176   -304.565363
PG17 -13568.913712 -22245.819191  -4705.974472    421.054970
PG18  -1271.030257  21447.626493  15569.068704    351.521663
PG19 -16243.043181 -16567.256471 -13304.555310    -17.300181
PG20  -3441.515883  15845.826232  20945.975037    523.512604
PG21  16922.842193 -18373.481495   9017.230453    108.485214
PG22  20674.698458 -10554.709917 -12541.786861   -645.428274
PG23   6000.603297  14805.637709  21205.704862    115.131551
PG24 -15513.494812  20533.921420   5422.751101      0.192559
PG25  -1709.358398  15257.570858 -21927.024411    112.215341
PG26  25622.892193   4344.495480  -6190.472664     67.628299
PG27  16864.528936   2534.618238  20292.292111   -106.719464
PG28 -17446.391596 -13020.807145  15637.709637    591.822445
PG29   2996.178562  24191.356801 -10543.405045   -324.169632
PG30  -7376.269355 -15645.431502  20151.528848   -408.228220
PG31  14881.461473   5053.186242 -21539.640576   -109.647666
PG32  16048.789433  20246.500305  -6431.156121     21.992715
PJ01 -26993.043880  21087.156569  29576.333205   -361.943319
PJ02 -35284.500861  18457.466285  -9274.044631      4.749610
PJ03 -20387.287738  27690.946636 -19806.574346     -2.803477
PJ07 -25396.903961  33668.434709     48.213256     -0.004213
PR01  21257.233347  14075.233850    549.453068     77.403163
PR02  17747.371652   1732.946442 -18220.901593    473.520571
PR03   3582.664281 -10692.929542 -22828.888256     33.620542
PR04 -12522.213180 -16764.919898 -14552.422894     80.926020
PR05 -21483.552391 -13602.844283   1892.157182     69.388027
PR06 -17237.232473   -323.444474  18786.383754    195.659172
PR07  -2912.034352  11135.662684  22808.968740    -42.560418
PR08  12487.907577  16856.410845  14584.522627    -58.349100
PR09 -23329.033362   9852.697512   3360.812487    -13.699811
PR10 -16081.341488  14984.659781 -12891.437084    -67.712224
PR11    857.918397  11574.309998 -22708.162217      1.519431
PR12  17436.178658   1281.851510 -18563.094387    218.165476
PR13  23291.934283  -9612.652308  -3997.805285    -52.967669
PR14  15442.883683 -14977.484999  13703.529777     62.786430
PR15  -1195.321807 -11513.335737  22745.328187    104.550278
PR16 -18054.169581   -433.637844  17925.761615    -13.386241
PR17   6239.311941 -22671.182701   9933.958310    413.584333
PR18  -1163.322890 -24469.318891  -6987.872037     72.105031
PR19  -7348.179550 -14251.561975 -19836.776466   -138.479594
PR20 -10611.773158   7197.391903 -22053.315849    -46.652187
PR21  -5823.238175  23201.203147  -8832.473432   -199.369605
PR22   1508.973060  24212.743158   8035.733474   -106.144478
PR23   9537.915266   6931.070010  22613.080112    376.469287
PR24  10916.259434  -8022.318292  21630.936415     37.591748
EOF
